[{"OBJECT_NAME":"239ALFEROV (RS61S)","OBJECT_ID":"2025-155F","EPOCH":"2026-03-09T21:46:33.382848","MEAN_MOTION":15.29933217,"ECCENTRICITY":0.00084878,"INCLINATION":97.4469,"RA_OF_ASC_NODE":37.6373,"ARG_OF_PERICENTER":151.5904,"MEAN_ANOMALY":208.58,"EPHEMERIS_TYPE":0,"CLASSIFICATION_TYPE":"U","NORAD_CAT_ID":64881,"ELEMENT_SET_NO":999,"REV_AT_EPOCH":6561,"BSTAR":0.00067233359,"MEAN_MOTION_DOT":0.00019457,"MEAN_MOTION_DDOT":0},{"OBJECT_NAME":"COSMOS 886 DEB","OBJECT_ID":"1976-126CG","EPOCH":"2026-03-09T13:42:09.387072","MEAN_MOTION":14.65936144,"ECCENTRICITY":0.0273927,"INCLINATION":65.5637,"RA_OF_ASC_NODE":138.088,"ARG_OF_PERICENTER":273.4033,"MEAN_ANOMALY":83.5779,"EPHEMERIS_TYPE":0,"CLASSIFICATION_TYPE":"U","NORAD_CAT_ID":20673,"ELEMENT_SET_NO":999,"REV_AT_EPOCH":71273,"BSTAR":0.0023391,"MEAN_MOTION_DOT":0.00022449,"MEAN_MOTION_DDOT":0}]
